NORAD_CAT_ID,OBJECT_NAME,OBJECT_TYPE,EPOCH,MEAN_MOTION,ECCENTRICITY,INCLINATION,RA_OF_ASC_NODE,ARG_OF_PERICENTER,MEAN_ANOMALY,BSTAR,MEAN_MOTION_DOT,MEAN_MOTION_DDOT,TLE_LINE0,TLE_LINE1,TLE_LINE2,SEMIMAJOR_AXIS,PERIOD,APOGEE,PERIGEE,DECAYED
49442.0,STARLINK-3098,PAYLOAD,2024-07-16 16:30:56,15.08840253,9.56e-05,53.2175,27.1247,81.4902,278.6199,0.00023768,3.497e-05,0.0,0 STARLINK-3098,1 49442U 21104AL  24198.68815791  .00003497  00000-0  23768-3 0  9992,2 49442  53.2175  27.1247 0000956  81.4902 278.6199 15.08840253149265,6917.88,95.438,540.406,539.083,0.0
49442.0,STARLINK-3098,PAYLOAD,2024-07-17 05:14:01,15.08860551,0.0001,53.2175,24.75,81.2771,278.8335,0.00052573,8.094e-05,0.0,0 STARLINK-3098,1 49442U 21104AL  24199.21806916  .00008094  00000-0  52573-3 0  9995,2 49442  53.2175  24.7500 0001000  81.2771 278.8335 15.08860551149349,6917.818,95.436,540.374,538.991,0.0
49442.0,STARLINK-3098,PAYLOAD,2024-07-17 11:35:34,15.08855986,0.0002373,53.2179,23.563,86.9988,273.1276,0.0005012,7.701e-05,0.0,0 STARLINK-3098,1 49442U 21104AL  24199.48303486  .00007701  00000-0  50120-3 0  9998,2 49442  53.2179  23.5630 0002373  86.9988 273.1276 15.08855986149382,6917.832,95.437,541.338,538.055,0.0
49442.0,STARLINK-3098,PAYLOAD,2024-07-17 17:57:07,15.08828126,0.0001129,53.2175,22.3694,82.3715,277.7406,-0.00014662,-2.62e-05,0.0,0 STARLINK-3098,1 49442U 21104AL  24199.74800130 -.00002620  00000-0 -14662-3 0  9993,2 49442  53.2175  22.3694 0001129  82.3715 277.7406 15.08828126149427,6917.917,95.438,540.563,539.001,0.0
49442.0,STARLINK-3098,PAYLOAD,2024-07-18 05:04:48,15.08848468,9.2e-05,53.2167,20.2808,54.2208,305.8869,0.00041326,6.297e-05,0.0,0 STARLINK-3098,1 49442U 21104AL  24200.21167661  .00006297  00000-0  41326-3 0  9992,2 49442  53.2167  20.2808 0000920  54.2208 305.8869 15.08848468149499,6917.855,95.437,540.356,539.083,0.0
49442.0,STARLINK-3098,PAYLOAD,2024-07-18 19:23:17,15.08834624,0.0001145,53.2162,17.6111,66.9571,293.1541,0.00033613,5.065e-05,0.0,0 STARLINK-3098,1 49442U 21104AL  24200.80784515  .00005065  00000-0  33613-3 0  9992,2 49442  53.2162  17.6111 0001145  66.9571 293.1541 15.08834624149589,6917.897,95.438,540.554,538.97,0.0
49442.0,STARLINK-3098,PAYLOAD,2024-07-19 11:17:09,15.08844328,0.0001094,53.216,14.6378,68.3109,291.8,0.0004288,6.544e-05,0.0,0 STARLINK-3098,1 49442U 21104AL  24201.47024679  .00006544  00000-0  42880-3 0  9993,2 49442  53.2160  14.6378 0001094  68.3109 291.8000 15.08844328148604,6917.867,95.437,540.489,538.975,0.0
49442.0,STARLINK-3098,PAYLOAD,2024-07-19 19:14:04,15.08844163,9.86e-05,53.2163,13.1494,81.2614,278.8489,0.00030928,4.638e-05,0.0,0 STARLINK-3098,1 49442U 21104AL  24201.80144580  .00004638  00000-0  30928-3 0  9996,2 49442  53.2163  13.1494 0000986  81.2614 278.8489 15.08844163148652,6917.868,95.437,540.415,539.051,0.0
49442.0,STARLINK-3098,PAYLOAD,2024-07-20 04:46:23,15.0885554,9.84e-05,53.2169,11.3653,81.145,278.9653,0.00051404,7.906e-05,0.0,0 STARLINK-3098,1 49442U 21104AL  24202.19888106  .00007906  00000-0  51404-3 0  9991,2 49442  53.2169  11.3653 0000984  81.1450 278.9653 15.08855540149791,6917.833,95.437,540.379,539.017,0.0
49442.0,STARLINK-3098,PAYLOAD,2024-07-20 17:29:28,15.08836853,8.7e-05,53.2171,8.9849,102.7963,257.3126,-0.00022193,-3.818e-05,0.0,0 STARLINK-3098,1 49442U 21104AL  24202.72880643 -.00003818  00000-0 -22193-3 0  9991,2 49442  53.2171   8.9849 0000870 102.7963 257.3126 15.08836853149877,6917.89,95.438,540.357,539.153,0.0
49442.0,STARLINK-3098,PAYLOAD,2024-07-21 04:37:10,15.08853813,9.97e-05,53.2173,6.9031,103.3308,256.7796,0.00057368,8.857e-05,0.0,0 STARLINK-3098,1 49442U 21104AL  24203.19248316  .00008857  00000-0  57368-3 0  9996,2 49442  53.2173   6.9031 0000997 103.3308 256.7796 15.08853813149949,6917.838,95.437,540.393,539.013,0.0
49442.0,STARLINK-3098,PAYLOAD,2024-07-21 10:58:43,15.08844796,0.0002074,53.2175,5.7145,89.304,270.819,0.00068973,0.00010708,0.0,0 STARLINK-3098,1 49442U 21104AL  24203.45744911  .00010708  00000-0  68973-3 0  9999,2 49442  53.2175   5.7145 0002074  89.3040 270.8190 15.08844796149987,6917.866,95.437,541.165,538.296,0.0
49442.0,STARLINK-3098,PAYLOAD,2024-07-21 14:09:29,15.08837674,0.0001274,53.2173,5.12,97.3304,262.7833,0.00048871,7.498e-05,0.0,0 STARLINK-3098,1 49442U 21104AL  24203.58992849  .00007498  00000-0  48871-3 0  9995,2 49442  53.2173   5.1200 0001274  97.3304 262.7833 15.08837674148928,6917.887,95.438,540.634,538.871,0.0
49442.0,STARLINK-3098,PAYLOAD,2024-07-21 17:20:16,15.08842549,0.0001225,53.2174,4.5253,98.3945,261.7186,0.00078889,0.0001229,0.0,0 STARLINK-3098,1 49442U 21104AL  24203.72240865  .00012290  00000-0  78889-3 0  9993,2 49442  53.2174   4.5253 0001225  98.3945 261.7186 15.08842549148947,6917.873,95.437,540.585,538.89,0.0
49442.0,STARLINK-3098,PAYLOAD,2024-07-22 20:21:49,15.08853471,0.0001306,53.2179,359.4704,97.2712,262.8429,0.00064329,9.969e-05,0.0,0 STARLINK-3098,1 49442U 21104AL  24204.84848728  .00009969  00000-0  64329-3 0  9992,2 49442  53.2179 359.4704 0001306  97.2712 262.8429 15.08853471149113,6917.839,95.437,540.608,538.801,0.0
49442.0,STARLINK-3098,PAYLOAD,2024-07-23 17:01:50,15.08842267,0.000132,53.2164,355.6021,68.4044,291.7089,0.00017008,2.42e-05,0.0,0 STARLINK-3098,1 49442U 21104AL  24205.70960944  .00002420  00000-0  17008-3 0  9990,2 49442  53.2164 355.6021 0001320  68.4044 291.7089 15.08842267150320,6917.873,95.437,540.652,538.825,0.0
49442.0,STARLINK-3098,PAYLOAD,2024-07-24 10:31:04,15.08838293,0.0001428,53.2171,352.3349,83.7252,276.3903,3.5682e-05,2.8e-06,0.0,0 STARLINK-3098,1 49442U 21104AL  24206.43825206  .00000280  00000-0  35682-4 0  9993,2 49442  53.2171 352.3349 0001428  83.7252 276.3903 15.08838293150435,6917.886,95.438,540.738,538.763,0.0
49442.0,STARLINK-3098,PAYLOAD,2024-07-24 18:28:00,15.08837192,0.0001412,53.219,350.8496,85.9733,274.1421,3.229e-05,2.26e-06,0.0,0 STARLINK-3098,1 49442U 21104AL  24206.76945399  .00000226  00000-0  32290-4 0  9997,2 49442  53.2190 350.8496 0001412  85.9733 274.1421 15.08837192149406,6917.889,95.438,540.731,538.777,0.0
49442.0,STARLINK-3098,PAYLOAD,2024-07-25 18:18:48,15.08838208,0.0001375,53.2187,346.3893,84.4458,275.6691,6.1197e-05,6.86e-06,0.0,0 STARLINK-3098,1 49442U 21104AL  24207.76305589  .00000686  00000-0  61197-4 0  9997,2 49442  53.2187 346.3893 0001375  84.4458 275.6691 15.08838208150630,6917.886,95.438,540.702,538.8,0.0
49442.0,STARLINK-3098,PAYLOAD,2024-07-26 02:15:43,15.08844521,0.0001457,53.2166,344.9006,81.8794,278.2364,0.00019047,2.745e-05,0.0,0 STARLINK-3098,1 49442U 21104AL  24208.09425289  .00002745  00000-0  19047-3 0  9998,2 49442  53.2166 344.9006 0001457  81.8794 278.2364 15.08844521149608,6917.867,95.437,540.74,538.724,0.0
49442.0,STARLINK-3098,PAYLOAD,2024-07-26 18:09:34,15.08843915,0.0001695,53.2209,341.9263,82.4282,277.6902,0.00018676,2.686e-05,0.0,0 STARLINK-3098,1 49442U 21104AL  24208.75665311  .00002686  00000-0  18676-3 0  9994,2 49442  53.2209 341.9263 0001695  82.4282 277.6902 15.08843915149709,6917.868,95.437,540.906,538.561,0.0
49442.0,STARLINK-3098,PAYLOAD,2024-07-27 18:00:22,15.08836987,0.0001202,53.2198,337.4627,79.5152,280.5976,-7.7996e-05,-1.529e-05,0.0,0 STARLINK-3098,1 49442U 21104AL  24209.75025639 -.00001529  00000-0 -77996-4 0  9996,2 49442  53.2198 337.4627 0001202  79.5152 280.5976 15.08836987149858,6917.89,95.438,540.586,538.923,0.0
49442.0,STARLINK-3098,PAYLOAD,2024-07-28 01:57:17,15.08844554,0.0001197,53.2172,335.9805,87.0576,273.0553,2.6448e-05,1.33e-06,0.0,0 STARLINK-3098,1 49442U 21104AL  24210.08145493  .00000133  00000-0  26448-4 0  9999,2 49442  53.2172 335.9805 0001197  87.0576 273.0553 15.08844554150981,6917.866,95.437,540.56,538.903,0.0
49442.0,STARLINK-3098,PAYLOAD,2024-07-28 17:51:09,15.08837761,0.0001634,53.2187,332.9998,103.7138,256.4036,0.00010336,1.357e-05,0.0,0 STARLINK-3098,1 49442U 21104AL  24210.74385667  .00001357  00000-0  10336-3 0  9998,2 49442  53.2187 332.9998 0001634 103.7138 256.4036 15.08837761150009,6917.887,95.438,540.883,538.622,0.0
49442.0,STARLINK-3098,PAYLOAD,2024-07-29 14:31:09,15.08842389,0.0001147,53.2206,329.1405,99.2232,260.889,8.5436e-05,1.072e-05,0.0,0 STARLINK-3098,1 49442U 21104AL  24211.60497446  .00001072  00000-0  85436-4 0  9991,2 49442  53.2206 329.1405 0001147  99.2232 260.8890 15.08842389150138,6917.873,95.437,540.532,538.945,0.0
49442.0,STARLINK-3098,PAYLOAD,2024-07-29 16:06:33,15.08840702,0.0001523,53.2175,328.8439,92.4177,267.6989,7.2611e-05,8.68e-06,0.0,0 STARLINK-3098,1 49442U 21104AL  24211.67121690  .00000868  00000-0  72611-4 0  9996,2 49442  53.2175 328.8439 0001523  92.4177 267.6989 15.08840702151229,6917.878,95.438,540.797,538.69,0.0
49442.0,STARLINK-3098,PAYLOAD,2024-07-30 14:21:56,15.08840486,0.0001247,53.2169,324.6823,84.5248,275.5887,0.00012323,1.674e-05,0.0,0 STARLINK-3098,1 49442U 21104AL  24212.59857476  .00001674  00000-0  12323-3 0  9995,2 49442  53.2169 324.6823 0001247  84.5248 275.5887 15.08840486150286,6917.879,95.438,540.607,538.881,0.0
49442.0,STARLINK-3098,PAYLOAD,2024-07-31 14:12:45,15.08820512,0.0001369,53.2154,320.2239,105.9848,254.1295,-0.00010068,-1.889e-05,0.0,0 STARLINK-3098,1 49442U 21104AL  24213.59219844 -.00001889  00000-0 -10068-3 0  9991,2 49442  53.2154 320.2239 0001369 105.9848 254.1295 15.08820512150433,6917.94,95.439,540.752,538.858,0.0
49442.0,STARLINK-3098,PAYLOAD,2024-07-31 23:45:03,15.08835738,0.0001428,53.2194,318.4316,94.1659,265.9497,2.5774e-05,1.22e-06,0.0,0 STARLINK-3098,1 49442U 21104AL  24213.98962350  .00000122  00000-0  25774-4 0  9999,2 49442  53.2194 318.4316 0001428  94.1659 265.9497 15.08835738151573,6917.893,95.438,540.746,538.771,0.0
49442.0,STARLINK-3098,PAYLOAD,2024-08-01 14:03:31,15.08844606,0.0002305,53.218,315.7645,110.1758,249.9482,0.00013253,1.822e-05,0.0,0 STARLINK-3098,1 49442U 21104AL  24214.58577682  .00001822  00000-0  13253-3 0  9992,2 49442  53.2180 315.7645 0002305 110.1758 249.9482 15.08844606151667,6917.866,95.437,541.326,538.137,0.0
